start=new Date('2022-05-21T00:00:00.000Z').valueOf();
sats=[{"DECAY_DATE":null,"PERIOD":"95.592","SITE":"AFETR","FILE":"3455160","REF_FRAME":"TEME","INCLINATION":"53.0555","CENTER_NAME":"EARTH","ARG_OF_PERICENTER":"49.6658","ELEMENT_SET_NO":"999","MEAN_MOTION":"15.06400256","EPOCH":"2022-05-20T10:16:49.289664","PERIAPSIS":"545.838","MEAN_MOTION_DOT":"0.00000848","MEAN_ANOMALY":"310.4504","BSTAR":"0.00007583800000","MEAN_MOTION_DDOT":"0.0000000000000","TIME_SYSTEM":"UTC","ECCENTRICITY":"0.00019850","LAUNCH_DATE":"2020-02-17","CLASSIFICATION_TYPE":"U","RA_OF_ASC_NODE":"123.2430","EPHEMERIS_TYPE":"0","RCS_SIZE":"LARGE","SEMIMAJOR_AXIS":"6925.348","REV_AT_EPOCH":"12592","COUNTRY_CODE":"US","OBJECT_TYPE":"PAYLOAD","OBJECT_ID":"2020-012BB","GP_ID":"204038957","NORAD_CAT_ID":"45227","MEAN_ELEMENT_THEORY":"SGP4","APOAPSIS":"548.587","OBJECT_NAME":"STARLINK-1221","TLE_LINE2":"2 45227  53.0555 123.2430 0001985  49.6658 310.4504 15.06400256125926","TLE_LINE1":"1 45227U 20012BB  22140.42834826  .00000848  00000-0  75838-4 0  9996"},{"OBJECT_NAME":"STARLINK-1222","TLE_LINE1":"1 45228U 20012BC  22140.36569031 -.00000583  00000-0 -20230-4 0  9997","TLE_LINE2":"2 45228  53.0548 123.5311 0002184  48.8338 311.2839 15.06399318125889","SEMIMAJOR_AXIS":"6925.351","REV_AT_EPOCH":"12588","GP_ID":"204037729","OBJECT_ID":"2020-012BC","NORAD_CAT_ID":"45228","OBJECT_TYPE":"PAYLOAD","COUNTRY_CODE":"US","APOAPSIS":"548.728","MEAN_ELEMENT_THEORY":"SGP4","RA_OF_ASC_NODE":"123.5311","LAUNCH_DATE":"2020-02-17","CLASSIFICATION_TYPE":"U","EPHEMERIS_TYPE":"0","RCS_SIZE":"LARGE","MEAN_MOTION_DDOT":"0.0000000000000","TIME_SYSTEM":"UTC","ECCENTRICITY":"0.00021840","MEAN_MOTION_DOT":"-0.00000583","PERIAPSIS":"545.703","MEAN_ANOMALY":"311.2839","BSTAR":"-0.00002023000000","MEAN_MOTION":"15.06399318","EPOCH":"2022-05-20T08:46:35.642784","REF_FRAME":"TEME","INCLINATION":"53.0548","FILE":"3455160","CENTER_NAME":"EARTH","ARG_OF_PERICENTER":"48.8338","ELEMENT_SET_NO":"999","DECAY_DATE":null,"SITE":"AFETR","PERIOD":"95.592"},{"BSTAR":"0.00007270600000","MEAN_MOTION_DOT":"0.00000801","PERIAPSIS":"545.823","MEAN_ANOMALY":"304.8219","EPOCH":"2022-05-20T07:53:31.305984","MEAN_MOTION":"15.06393344","ELEMENT_SET_NO":"999","INCLINATION":"53.0558","REF_FRAME":"TEME","FILE":"3455160","ARG_OF_PERICENTER":"55.2962","CENTER_NAME":"EARTH","DECAY_DATE":null,"SITE":"AFETR","PERIOD":"95.593","TLE_LINE1":"1 45229U 20012BD  22140.32883456  .00000801  00000-0  72706-4 0  9990","TLE_LINE2":"2 45229  53.0558 123.7144 0002038  55.2962 304.8219 15.06393344125883","OBJECT_NAME":"STARLINK-1226","APOAPSIS":"548.645","MEAN_ELEMENT_THEORY":"SGP4","SEMIMAJOR_AXIS":"6925.369","REV_AT_EPOCH":"12588","OBJECT_ID":"2020-012BD","GP_ID":"204037979","NORAD_CAT_ID":"45229","COUNTRY_CODE":"US","OBJECT_TYPE":"PAYLOAD","RCS_SIZE":"LARGE","RA_OF_ASC_NODE":"123.7144","LAUNCH_DATE":"2020-02-17","CLASSIFICATION_TYPE":"U","EPHEMERIS_TYPE":"0","ECCENTRICITY":"0.00020380","MEAN_MOTION_DDOT":"0.0000000000000","TIME_SYSTEM":"UTC"},{"PERIOD":"95.593","SITE":"AFETR","DECAY_DATE":null,"ELEMENT_SET_NO":"999","ARG_OF_PERICENTER":"54.3218","CENTER_NAME":"EARTH","FILE":"3455160","REF_FRAME":"TEME","INCLINATION":"53.0546","EPOCH":"2022-05-20T09:23:45.773664","MEAN_MOTION":"15.06391094","BSTAR":"-0.00005266400000","MEAN_ANOMALY":"305.7957","PERIAPSIS":"545.860","MEAN_MOTION_DOT":"-0.00001066","ECCENTRICITY":"0.00019940","TIME_SYSTEM":"UTC","MEAN_MOTION_DDOT":"0.0000000000000","RCS_SIZE":"LARGE","EPHEMERIS_TYPE":"0","CLASSIFICATION_TYPE":"U","LAUNCH_DATE":"2020-02-17","RA_OF_ASC_NODE":"123.4144","MEAN_ELEMENT_THEORY":"SGP4","APOAPSIS":"548.622","COUNTRY_CODE":"US","OBJECT_TYPE":"PAYLOAD","NORAD_CAT_ID":"45230","GP_ID":"204038731","OBJECT_ID":"2020-012BE","SEMIMAJOR_AXIS":"6925.376","REV_AT_EPOCH":"12601","TLE_LINE2":"2 45230  53.0546 123.4144 0001994  54.3218 305.7957 15.06391094126018","TLE_LINE1":"1 45230U 20012BE  22140.39150201 -.00001066  00000-0 -52664-4 0  9991","OBJECT_NAME":"STARLINK-1227"},{"TLE_LINE2":"2 45231  53.0217 321.9055 0009161 278.8252  81.1729 15.76719516127298","TLE_LINE1":"1 45231U 20012BF  22140.50548057 -.00004805  00000-0 -25211-4 0  9997","OBJECT_NAME":"STARLINK-1229","MEAN_ELEMENT_THEORY":"SGP4","APOAPSIS":"345.899","REV_AT_EPOCH":"12729","SEMIMAJOR_AXIS":"6717.880","OBJECT_TYPE":"PAYLOAD","COUNTRY_CODE":"US","GP_ID":"204048716","OBJECT_ID":"2020-012BF","NORAD_CAT_ID":"45231","RCS_SIZE":"LARGE","CLASSIFICATION_TYPE":"U","LAUNCH_DATE":"2020-02-17","RA_OF_ASC_NODE":"321.9055","EPHEMERIS_TYPE":"0","ECCENTRICITY":"0.00091610","TIME_SYSTEM":"UTC","MEAN_MOTION_DDOT":"0.0000000000000","BSTAR":"-0.00002521100000","PERIAPSIS":"333.590","MEAN_MOTION_DOT":"-0.00004805","MEAN_ANOMALY":"81.1729","EPOCH":"2022-05-20T12:07:53.521248","MEAN_MOTION":"15.76719516","ELEMENT_SET_NO":"999","FILE":"3455454","INCLINATION":"53.0217","REF_FRAME":"TEME","CENTER_NAME":"EARTH","ARG_OF_PERICENTER":"278.8252","DECAY_DATE":null,"PERIOD":"91.329","SITE":"AFETR"},{"BSTAR":"0.00044942000000","PERIAPSIS":"545.776","MEAN_MOTION_DOT":"0.00006419","MEAN_ANOMALY":"311.5435","EPOCH":"2022-05-20T11:15:12.763872","MEAN_MOTION":"15.06401849","ELEMENT_SET_NO":"999","FILE":"3455160","INCLINATION":"53.0538","REF_FRAME":"TEME","ARG_OF_PERICENTER":"48.5732","CENTER_NAME":"EARTH","DECAY_DATE":null,"PERIOD":"95.592","SITE":"AFETR","TLE_LINE2":"2 45232  53.0538 123.0675 0002068  48.5732 311.5435 15.06401849126011","TLE_LINE1":"1 45232U 20012BG  22140.46889773  .00006419  00000-0  44942-3 0  9998","OBJECT_NAME":"STARLINK-1235","MEAN_ELEMENT_THEORY":"SGP4","APOAPSIS":"548.640","SEMIMAJOR_AXIS":"6925.343","REV_AT_EPOCH":"12601","OBJECT_TYPE":"PAYLOAD","COUNTRY_CODE":"US","GP_ID":"204038229","OBJECT_ID":"2020-012BG","NORAD_CAT_ID":"45232","RCS_SIZE":"LARGE","CLASSIFICATION_TYPE":"U","LAUNCH_DATE":"2020-02-17","RA_OF_ASC_NODE":"123.0675","EPHEMERIS_TYPE":"0","ECCENTRICITY":"0.00020680","MEAN_MOTION_DDOT":"0.0000000000000","TIME_SYSTEM":"UTC"},{"PERIAPSIS":"545.899","MEAN_MOTION_DOT":"0.00000556","MEAN_ANOMALY":"307.3660","BSTAR":"0.00005624600000","MEAN_MOTION":"15.06385560","EPOCH":"2022-05-20T09:10:29.587296","FILE":"3455160","REF_FRAME":"TEME","INCLINATION":"53.0530","ARG_OF_PERICENTER":"52.7508","CENTER_NAME":"EARTH","ELEMENT_SET_NO":"999","DECAY_DATE":null,"PERIOD":"95.593","SITE":"AFETR","OBJECT_NAME":"STARLINK-1238","TLE_LINE2":"2 45233  53.0530 143.4662 0001962  52.7508 307.3660 15.06385560125705","TLE_LINE1":"1 45233U 20012BH  22140.38228689  .00000556  00000-0  56246-4 0  9990","SEMIMAJOR_AXIS":"6925.393","REV_AT_EPOCH":"12570","OBJECT_TYPE":"PAYLOAD","COUNTRY_CODE":"US","OBJECT_ID":"2020-012BH","GP_ID":"204038479","NORAD_CAT_ID":"45233","MEAN_ELEMENT_THEORY":"SGP4","APOAPSIS":"548.617","CLASSIFICATION_TYPE":"U","LAUNCH_DATE":"2020-02-17","RA_OF_ASC_NODE":"143.4662","EPHEMERIS_TYPE":"0","RCS_SIZE":"LARGE","TIME_SYSTEM":"UTC","MEAN_MOTION_DDOT":"0.0000000000000","ECCENTRICITY":"0.00019620"},{"TIME_SYSTEM":"UTC","MEAN_MOTION_DDOT":"0.0000000000000","ECCENTRICITY":"0.00017640","RA_OF_ASC_NODE":"162.9896","CLASSIFICATION_TYPE":"U","LAUNCH_DATE":"2020-02-17","EPHEMERIS_TYPE":"0","RCS_SIZE":"LARGE","SEMIMAJOR_AXIS":"6925.359","REV_AT_EPOCH":"12454","GP_ID":"204010787","OBJECT_ID":"2020-012BJ","NORAD_CAT_ID":"45234","COUNTRY_CODE":"US","OBJECT_TYPE":"PAYLOAD","APOAPSIS":"548.446","MEAN_ELEMENT_THEORY":"SGP4","OBJECT_NAME":"STARLINK-1243","TLE_LINE1":"1 45234U 20012BJ  22140.48733567  .00003507  00000-0  25425-3 0  9991","TLE_LINE2":"2 45234  53.0545 162.9896 0001764  64.0992 296.0179 15.06396434124542","DECAY_DATE":null,"SITE":"AFETR","PERIOD":"95.592","REF_FRAME":"TEME","INCLINATION":"53.0545","FILE":"3454670","CENTER_NAME":"EARTH","ARG_OF_PERICENTER":"64.0992","ELEMENT_SET_NO":"999","MEAN_MOTION":"15.06396434","EPOCH":"2022-05-20T11:41:45.801888","MEAN_MOTION_DOT":"0.00003507","PERIAPSIS":"546.003","MEAN_ANOMALY":"296.0179","BSTAR":"0.00025425000000"},{"ECCENTRICITY":"0.00018430","MEAN_MOTION_DDOT":"0.0000000000000","TIME_SYSTEM":"UTC","RCS_SIZE":"LARGE","EPHEMERIS_TYPE":"0","CLASSIFICATION_TYPE":"U","LAUNCH_DATE":"2020-02-17","RA_OF_ASC_NODE":"162.7543","MEAN_ELEMENT_THEORY":"SGP4","APOAPSIS":"548.508","OBJECT_TYPE":"PAYLOAD","COUNTRY_CODE":"US","NORAD_CAT_ID":"45235","GP_ID":"204048770","OBJECT_ID":"2020-012BK","SEMIMAJOR_AXIS":"6925.367","REV_AT_EPOCH":"12455","TLE_LINE2":"2 45235  53.0528 162.7543 0001843  50.1827 309.9324 15.06394078124551","TLE_LINE1":"1 45235U 20012BK  22140.53893689 -.00000880  00000-0 -40202-4 0  9994","OBJECT_NAME":"STARLINK-1246","PERIOD":"95.593","SITE":"AFETR","DECAY_DATE":null,"ELEMENT_SET_NO":"999","ARG_OF_PERICENTER":"50.1827","CENTER_NAME":"EARTH","FILE":"3455457","REF_FRAME":"TEME","INCLINATION":"53.0528","EPOCH":"2022-05-20T12:56:04.147296","MEAN_MOTION":"15.06394078","BSTAR":"-0.00004020200000","MEAN_ANOMALY":"309.9324","PERIAPSIS":"545.955","MEAN_MOTION_DOT":"-0.00000880"},{"TLE_LINE1":"1 45236U 20012BL  22140.65319432 -.00000269  00000-0  87635-6 0  9990","TLE_LINE2":"2 45236  53.0558 122.2344 0002740  40.5140 319.6052 15.06397490125102","OBJECT_NAME":"STARLINK-1247","APOAPSIS":"549.119","MEAN_ELEMENT_THEORY":"SGP4","REV_AT_EPOCH":"12510","SEMIMAJOR_AXIS":"6925.356","GP_ID":"204048775","NORAD_CAT_ID":"45236","OBJECT_ID":"2020-012BL","COUNTRY_CODE":"US","OBJECT_TYPE":"PAYLOAD","RCS_SIZE":"LARGE","RA_OF_ASC_NODE":"122.2344","CLASSIFICATION_TYPE":"U","LAUNCH_DATE":"2020-02-17","EPHEMERIS_TYPE":"0","ECCENTRICITY":"0.00027400","TIME_SYSTEM":"UTC","MEAN_MOTION_DDOT":"0.0000000000000","BSTAR":"0.00000087635000","MEAN_MOTION_DOT":"-0.00000269","PERIAPSIS":"545.324","MEAN_ANOMALY":"319.6052","EPOCH":"2022-05-20T15:40:35.989248","MEAN_MOTION":"15.06397490","ELEMENT_SET_NO":"999","INCLINATION":"53.0558","REF_FRAME":"TEME","FILE":"3455457","ARG_OF_PERICENTER":"40.5140","CENTER_NAME":"EARTH","DECAY_DATE":null,"SITE":"AFETR","PERIOD":"95.592"}];
